     2.10           G: GLONASS NAV DATA                     RINEX VERSION / TYPE
teqc  2011Oct11     IGN-E (SPG)         20150127 13:00:51UTCPGM / RUN BY / DATE
Linux 2.4.21-27.ELsmp|Opteron|gcc -static|Linux x86_64|=+   COMMENT
                                                            END OF HEADER
14 15  1 27 12 15  0.0 1.242887228727D-04 4.547473508865D-12 4.320000000000D+04
    2.229851611328D+04 1.556019783020D+00-0.000000000000D+00 0.000000000000D+00
    4.126721679688D+03 4.578208923340D-01-0.000000000000D+00-7.000000000000D+00
   -1.176208007812D+04 3.108472824097D+00 0.000000000000D+00 0.000000000000D+00
17 15  1 27 12 15  0.0 1.467438414693D-04 9.094947017729D-13 4.320000000000D+04
    2.087440136719D+04-1.451043128967D+00 0.000000000000D+00 0.000000000000D+00
   -8.089108886719D+03 8.483724594116D-01-9.313225746155D-10 4.000000000000D+00
   -1.216400195312D+04-3.049965858459D+00 0.000000000000D+00 0.000000000000D+00
18 15  1 27 12 15  0.0 3.539398312569D-05 1.818989403546D-12 4.320000000000D+04
    1.884200000000D+04 4.401617050171D-01-0.000000000000D+00 0.000000000000D+00
   -1.651806005859D+04-5.473690032959D-01-9.313225746155D-10-3.000000000000D+00
    4.971763183594D+03-3.491842269897D+00-1.862645149231D-09 0.000000000000D+00
19 15  1 27 12 15  0.0-1.167757436633D-04-9.094947017729D-13 4.320000000000D+04
    4.392441406250D+03 2.231714248657D+00-9.313225746155D-10 0.000000000000D+00
   -1.465898437500D+04-1.686239242554D+00-0.000000000000D+00 3.000000000000D+00
    2.041019921875D+04-1.691992759705D+00-2.793967723846D-09 0.000000000000D+00
20 15  1 27 12 15  0.0-1.552375033498D-04-1.818989403546D-12 4.491000000000D+04
   -1.190533789062D+04 2.515900611877D+00-0.000000000000D+00 0.000000000000D+00
   -4.179053710938D+03-1.700212478638D+00 0.000000000000D+00 2.000000000000D+00
    2.216872509766D+04 1.035673141479D+00-1.862645149231D-09 0.000000000000D+00
 4 15  1 27 12 45  0.0 1.070732250810D-04 9.094947017729D-13 4.500000000000D+04
    6.372485839844D+03 5.981626510620D-01-9.313225746155D-10 0.000000000000D+00
   -1.420868505859D+04 2.701002120972D+00-0.000000000000D+00 6.000000000000D+00
    2.021204785156D+04 1.710063934326D+00-2.793967723846D-09 0.000000000000D+00
 2 15  1 27 12 45  0.0 1.156069338322D-04 1.818989403546D-12 4.500000000000D+04
    1.046044628906D+04 5.029239654541D-01-0.000000000000D+00 0.000000000000D+00
    2.061182373047D+04 1.392341613770D+00 3.725290298462D-09-4.000000000000D+00
    1.078391357422D+04-3.159837722778D+00-0.000000000000D+00 0.000000000000D+00
 3 15  1 27 12 45  0.0 3.395602107048D-05 9.094947017729D-13 4.500000000000D+04
    1.200008642578D+04 7.717199325562D-01-9.313225746155D-10 0.000000000000D+00
    4.643310546875D+03 2.911312103271D+00 1.862645149231D-09 5.000000000000D+00
    2.205018994141D+04-1.036435127258D+00-1.862645149231D-09 0.000000000000D+00
12 15  1 27 12 45  0.0-7.512979209423D-06 9.094947017729D-13 4.500000000000D+04
    2.825315429688D+03-2.942133903503D+00-0.000000000000D+00 0.000000000000D+00
    1.173120751953D+04-9.193811416626D-01 2.793967723846D-09-1.000000000000D+00
    2.247092968750D+04 8.349628448486D-01-1.862645149231D-09 0.000000000000D+00
13 15  1 27 12 45  0.0-4.695495590568D-04-9.094947017729D-13 4.500000000000D+04
    1.956594531250D+04-1.515804290771D+00-0.000000000000D+00 0.000000000000D+00
    1.124583837891D+04-6.280632019043D-01 2.793967723846D-09-2.000000000000D+00
    1.187440478516D+04 3.088899612427D+00-9.313225746155D-10 0.000000000000D+00
14 15  1 27 12 45  0.0 1.242980360985D-04 4.547473508865D-12 4.500000000000D+04
    2.447084130859D+04 8.251733779907D-01-0.000000000000D+00 0.000000000000D+00
    4.506594726562D+03-5.786895751953D-03 0.000000000000D+00-7.000000000000D+00
   -5.786069335938D+03 3.488613128662D+00 0.000000000000D+00 0.000000000000D+00
18 15  1 27 12 45  0.0 3.539677709341D-05 1.818989403546D-12 4.500000000000D+04
    1.897162500000D+04-2.729663848877D-01-0.000000000000D+00 0.000000000000D+00
   -1.704312451172D+04-1.750946044922D-03-1.862645149231D-09-3.000000000000D+00
   -1.424092773438D+03-3.568711280823D+00-9.313225746155D-10 0.000000000000D+00
19 15  1 27 12 45  0.0-1.167720183730D-04-9.094947017729D-13 4.500000000000D+04
    7.838318359375D+03 1.579505920410D+00-9.313225746155D-10 0.000000000000D+00
   -1.769761523438D+04-1.644289970398D+00-9.313225746155D-10 3.000000000000D+00
    1.661512744141D+04-2.497408866882D+00-2.793967723846D-09 0.000000000000D+00
20 15  1 27 12 45  0.0-1.552412286401D-04-1.818989403546D-12 4.500000000000D+04
   -7.501544433594D+03 2.332853317261D+00-0.000000000000D+00 0.000000000000D+00
   -7.665106445312D+03-2.145606040955D+00 0.000000000000D+00 2.000000000000D+00
    2.315226855469D+04 5.021762847900D-02-2.793967723846D-09 0.000000000000D+00
